{
  "type": "FeatureCollection",
  "features": [
    {
      "type": "Feature",
      "properties": {
        "name": "五大片区建模窗口（不是保护红线）"
      },
      "geometry": {
        "type": "Polygon",
        "coordinates": [
          [
            [
              119.43799938243089,
              25.996000454004236
            ],
            [
              119.4557,
              25.996000000000002
            ],
            [
              119.45569849064675,
              25.981799546049423
            ],
            [
              119.43800000000003,
              25.9818
            ],
            [
              119.43799938243089,
              25.996000454004236
            ]
          ]
        ]
      }
    },
    {
      "type": "Feature",
      "properties": {
        "name": "原首期船厂细节范围"
      },
      "geometry": {
        "type": "Polygon",
        "coordinates": [
          [
            [
              119.44213179524577,
              25.989441004161186
            ],
            [
              119.44206054279046,
              25.98964330775781
            ],
            [
              119.4418411751948,
              25.989580199712428
            ],
            [
              119.44083505971338,
              25.99243672064577
            ],
            [
              119.4411797878153,
              25.992535892640063
            ],
            [
              119.441204196028,
              25.992627579141157
            ],
            [
              119.44279577421426,
              25.993085433704515
            ],
            [
              119.44380042281989,
              25.990232945479733
            ],
            [
              119.44385638449499,
              25.990249043743216
            ],
            [
              119.44395613407113,
              25.989965817482023
            ],
            [
              119.44213179524577,
              25.989441004161186
            ]
          ]
        ]
      }
    },
    {
      "type": "Feature",
      "properties": {
        "id": "museum",
        "name": "中国船政文化博物馆 · 新馆",
        "osmId": 1148505930,
        "completion": "photo",
        "estimatedHeight": 19.8,
        "baseHeight": 0,
        "kind": "core"
      },
      "geometry": {
        "type": "Polygon",
        "coordinates": [
          [
            [
              119.44117410000001,
              25.9925494
            ],
            [
              119.4420621,
              25.992803900000002
            ],
            [
              119.4421275,
              25.9926193
            ],
            [
              119.4412395,
              25.992364999999996
            ],
            [
              119.44117410000001,
              25.9925494
            ]
          ]
        ]
      }
    },
    {
      "type": "Feature",
      "properties": {
        "id": "huyuan",
        "name": "绘事院",
        "osmId": 1231603257,
        "completion": "sample",
        "estimatedHeight": 10.2,
        "baseHeight": 0,
        "kind": "core"
      },
      "geometry": {
        "type": "Polygon",
        "coordinates": [
          [
            [
              119.44298450000004,
              25.990615199999997
            ],
            [
              119.4431964,
              25.990675700000004
            ],
            [
              119.44329329999998,
              25.990401299999995
            ],
            [
              119.44308150000003,
              25.9903409
            ],
            [
              119.44298450000004,
              25.990615199999997
            ]
          ]
        ]
      }
    },
    {
      "type": "Feature",
      "properties": {
        "id": "engine",
        "name": "轮机车间",
        "osmId": 1231603258,
        "completion": "sample",
        "estimatedHeight": 5.2,
        "baseHeight": 0,
        "kind": "core"
      },
      "geometry": {
        "type": "Polygon",
        "coordinates": [
          [
            [
              119.4429173,
              25.99080289999999
            ],
            [
              119.44350920000001,
              25.990971500000008
            ],
            [
              119.44357520000001,
              25.9907844
            ],
            [
              119.4431964,
              25.990675700000004
            ],
            [
              119.44298450000004,
              25.990615199999997
            ],
            [
              119.4429173,
              25.99080289999999
            ]
          ]
        ]
      }
    },
    {
      "type": "Feature",
      "properties": {
        "id": "iron",
        "name": "铁胁厂",
        "osmId": 1259590523,
        "completion": "photo",
        "estimatedHeight": 6.4,
        "baseHeight": 0,
        "kind": "core"
      },
      "geometry": {
        "type": "Polygon",
        "coordinates": [
          [
            [
              119.44228099999998,
              25.992468
            ],
            [
              119.44240520000001,
              25.9921185
            ],
            [
              119.44307530000002,
              25.992311
            ],
            [
              119.44295110000002,
              25.99266039999999
            ],
            [
              119.44228099999998,
              25.992468
            ]
          ]
        ]
      }
    },
    {
      "type": "Feature",
      "properties": {
        "id": "visitor",
        "name": "游客服务中心 · 原变电站",
        "osmId": 1470977340,
        "completion": "mass",
        "estimatedHeight": 6.2,
        "baseHeight": 0,
        "kind": "core"
      },
      "geometry": {
        "type": "Polygon",
        "coordinates": [
          [
            [
              119.4432903,
              25.990503000000004
            ],
            [
              119.4433387,
              25.9903672
            ],
            [
              119.443599,
              25.990442199999997
            ],
            [
              119.44358429999998,
              25.9904836
            ],
            [
              119.44367779999999,
              25.990510600000004
            ],
            [
              119.4436441,
              25.990604999999995
            ],
            [
              119.4432903,
              25.990503000000004
            ]
          ]
        ]
      }
    },
    {
      "type": "Feature",
      "properties": {
        "id": "library",
        "name": "船政书局",
        "osmId": 1470977341,
        "completion": "photo",
        "estimatedHeight": 8.4,
        "baseHeight": 0,
        "kind": "core"
      },
      "geometry": {
        "type": "Polygon",
        "coordinates": [
          [
            [
              119.442768,
              25.991241499999997
            ],
            [
              119.44280560000001,
              25.991130600000005
            ],
            [
              119.44338910000003,
              25.991290600000003
            ],
            [
              119.44335140000004,
              25.9914015
            ],
            [
              119.442768,
              25.991241499999997
            ]
          ]
        ]
      }
    },
    {
      "type": "Feature",
      "properties": {
        "id": "theatre",
        "name": "最忆船政剧场 · 原机修车间",
        "osmId": 1470977342,
        "completion": "photo",
        "estimatedHeight": 9,
        "baseHeight": 0,
        "kind": "core"
      },
      "geometry": {
        "type": "Polygon",
        "coordinates": [
          [
            [
              119.44162080000002,
              25.991854399999998
            ],
            [
              119.4417995,
              25.9913559
            ],
            [
              119.4424826,
              25.991553799999995
            ],
            [
              119.4423039,
              25.992052199999996
            ],
            [
              119.44162080000002,
              25.991854399999998
            ]
          ]
        ]
      }
    },
    {
      "type": "Feature",
      "properties": {
        "id": "pipe15",
        "name": "15号管加课",
        "osmId": 1470977344,
        "completion": "photo",
        "estimatedHeight": 8.5,
        "baseHeight": 0,
        "kind": "core"
      },
      "geometry": {
        "type": "Polygon",
        "coordinates": [
          [
            [
              119.4423954,
              25.990952399999998
            ],
            [
              119.4425314,
              25.990568399999997
            ],
            [
              119.4428283,
              25.990653299999995
            ],
            [
              119.4426923,
              25.991037400000003
            ],
            [
              119.4423954,
              25.990952399999998
            ]
          ]
        ]
      }
    },
    {
      "type": "Feature",
      "properties": {
        "id": "pipe18",
        "name": "18号管加课",
        "osmId": 1470977345,
        "completion": "mass",
        "estimatedHeight": 6.5,
        "baseHeight": 0,
        "kind": "core"
      },
      "geometry": {
        "type": "Polygon",
        "coordinates": [
          [
            [
              119.44200150000002,
              25.9906423
            ],
            [
              119.44210320000003,
              25.9903606
            ],
            [
              119.4423677,
              25.9904378
            ],
            [
              119.442266,
              25.9907195
            ],
            [
              119.44200150000002,
              25.9906423
            ]
          ]
        ]
      }
    },
    {
      "type": "Feature",
      "properties": {
        "id": "store",
        "name": "公厕 · 辅助建筑",
        "osmId": 1471591719,
        "completion": "mass",
        "estimatedHeight": 4,
        "baseHeight": 0,
        "kind": "core"
      },
      "geometry": {
        "type": "Polygon",
        "coordinates": [
          [
            [
              119.4434142,
              25.990727100000008
            ],
            [
              119.4434358,
              25.9906676
            ],
            [
              119.44361189999998,
              25.9907191
            ],
            [
              119.44359029999998,
              25.990778600000006
            ],
            [
              119.4434142,
              25.990727100000008
            ]
          ]
        ]
      }
    },
    {
      "type": "Feature",
      "properties": {
        "id": "lifting",
        "name": "起运车间",
        "osmId": 1471591720,
        "completion": "mass",
        "estimatedHeight": 5,
        "baseHeight": 0,
        "kind": "core"
      },
      "geometry": {
        "type": "Polygon",
        "coordinates": [
          [
            [
              119.44161690000001,
              25.991344999999992
            ],
            [
              119.44169450000003,
              25.9911414
            ],
            [
              119.44182880000004,
              25.991182800000008
            ],
            [
              119.44175120000003,
              25.991386399999996
            ],
            [
              119.44161690000001,
              25.991344999999992
            ]
          ]
        ]
      }
    },
    {
      "type": "Feature",
      "properties": {
        "id": "support",
        "name": "甲居装课保障组",
        "osmId": 1471591721,
        "completion": "mass",
        "estimatedHeight": 5.5,
        "baseHeight": 0,
        "kind": "core"
      },
      "geometry": {
        "type": "Polygon",
        "coordinates": [
          [
            [
              119.44196490000002,
              25.9922908
            ],
            [
              119.44203990000003,
              25.992086799999992
            ],
            [
              119.44227520000001,
              25.992156600000012
            ],
            [
              119.44220019999999,
              25.992360699999995
            ],
            [
              119.44196490000002,
              25.9922908
            ]
          ]
        ]
      }
    },
    {
      "type": "Feature",
      "properties": {
        "id": "aux72",
        "name": "72号辅助用房",
        "osmId": null,
        "completion": "mass",
        "estimatedHeight": 3.2,
        "baseHeight": 0,
        "kind": "core"
      },
      "geometry": {
        "type": "Polygon",
        "coordinates": [
          [
            [
              119.44142368299516,
              25.99185744205831
            ],
            [
              119.44139874372912,
              25.991928248176052
            ],
            [
              119.44148156771779,
              25.991952074967696
            ],
            [
              119.44150650693919,
              25.991881268835915
            ],
            [
              119.44142368299516,
              25.99185744205831
            ]
          ]
        ]
      }
    },
    {
      "type": "Feature",
      "properties": {
        "id": "slipAux",
        "name": "三千吨船台辅助用房",
        "osmId": null,
        "completion": "mass",
        "estimatedHeight": 3.4,
        "baseHeight": 0,
        "kind": "core"
      },
      "geometry": {
        "type": "Polygon",
        "coordinates": [
          [
            [
              119.44363104668288,
              25.989887896643392
            ],
            [
              119.44356478404384,
              25.99007603966466
            ],
            [
              119.44364536870762,
              25.99009922128896
            ],
            [
              119.44371163123134,
              25.98991107823139
            ],
            [
              119.44363104668288,
              25.989887896643392
            ]
          ]
        ]
      }
    },
    {
      "type": "Feature",
      "properties": {
        "id": "osm-435579274",
        "name": "金海大厦",
        "osmId": 435579274,
        "completion": "mass",
        "estimatedHeight": 6.6,
        "baseHeight": 6.3313861342044095,
        "kind": "context"
      },
      "geometry": {
        "type": "Polygon",
        "coordinates": [
          [
            [
              119.45138570000005,
              25.991488899999993
            ],
            [
              119.4509857,
              25.990880599999997
            ],
            [
              119.450522,
              25.991127000000006
            ],
            [
              119.4508571,
              25.9916366
            ],
            [
              119.4510261,
              25.99168
            ],
            [
              119.45138570000005,
              25.991488899999993
            ]
          ]
        ]
      }
    },
    {
      "type": "Feature",
      "properties": {
        "id": "osm-435579285",
        "name": "地图建筑 435579285",
        "osmId": 435579285,
        "completion": "mass",
        "estimatedHeight": 6.6,
        "baseHeight": 1.5905666623800663,
        "kind": "context"
      },
      "geometry": {
        "type": "Polygon",
        "coordinates": [
          [
            [
              119.45160030000001,
              25.993169099999996
            ],
            [
              119.4514708,
              25.9929761
            ],
            [
              119.45214230000002,
              25.992612
            ],
            [
              119.45227180000003,
              25.992804999999997
            ],
            [
              119.45160030000001,
              25.993169099999996
            ]
          ]
        ]
      }
    },
    {
      "type": "Feature",
      "properties": {
        "id": "osm-435579286",
        "name": "地图建筑 435579286",
        "osmId": 435579286,
        "completion": "mass",
        "estimatedHeight": 6.6,
        "baseHeight": 2.4383307785588997,
        "kind": "context"
      },
      "geometry": {
        "type": "Polygon",
        "coordinates": [
          [
            [
              119.45145689999998,
              25.992913400000006
            ],
            [
              119.45132270000002,
              25.9927022
            ],
            [
              119.45164670000003,
              25.992536000000005
            ],
            [
              119.4517808,
              25.9927471
            ],
            [
              119.45145689999998,
              25.992913400000006
            ]
          ]
        ]
      }
    },
    {
      "type": "Feature",
      "properties": {
        "id": "osm-435579287",
        "name": "地图建筑 435579287",
        "osmId": 435579287,
        "completion": "mass",
        "estimatedHeight": 6.6,
        "baseHeight": 2.148932683412239,
        "kind": "context"
      },
      "geometry": {
        "type": "Polygon",
        "coordinates": [
          [
            [
              119.4518087,
              25.9927043
            ],
            [
              119.4516761,
              25.9925044
            ],
            [
              119.45198730000001,
              25.992337599999995
            ],
            [
              119.45211990000001,
              25.9925376
            ],
            [
              119.4518087,
              25.9927043
            ]
          ]
        ]
      }
    },
    {
      "type": "Feature",
      "properties": {
        "id": "osm-435579288",
        "name": "地图建筑 435579288",
        "osmId": 435579288,
        "completion": "mass",
        "estimatedHeight": 6.6,
        "baseHeight": 2.375971494709791,
        "kind": "context"
      },
      "geometry": {
        "type": "Polygon",
        "coordinates": [
          [
            [
              119.45132950000003,
              25.9926215
            ],
            [
              119.45117750000003,
              25.992405800000007
            ],
            [
              119.45175050000002,
              25.9920795
            ],
            [
              119.45190260000003,
              25.9922952
            ],
            [
              119.45132950000003,
              25.9926215
            ]
          ]
        ]
      }
    },
    {
      "type": "Feature",
      "properties": {
        "id": "osm-435579289",
        "name": "地图建筑 435579289",
        "osmId": 435579289,
        "completion": "mass",
        "estimatedHeight": 6.6,
        "baseHeight": 3.0324883130804388,
        "kind": "context"
      },
      "geometry": {
        "type": "Polygon",
        "coordinates": [
          [
            [
              119.45120620000003,
              25.992293900000007
            ],
            [
              119.4510726,
              25.992100799999992
            ],
            [
              119.45158340000002,
              25.991815300000003
            ],
            [
              119.45171699999999,
              25.992008399999996
            ],
            [
              119.45120620000003,
              25.992293900000007
            ]
          ]
        ]
      }
    },
    {
      "type": "Feature",
      "properties": {
        "id": "osm-435579290",
        "name": "地图建筑 435579290",
        "osmId": 435579290,
        "completion": "mass",
        "estimatedHeight": 6.6,
        "baseHeight": 3.8145369000447396,
        "kind": "context"
      },
      "geometry": {
        "type": "Polygon",
        "coordinates": [
          [
            [
              119.4523831,
              25.9927611
            ],
            [
              119.45226879999998,
              25.992607399999997
            ],
            [
              119.4529005,
              25.992228100000005
            ],
            [
              119.4530147,
              25.99238179999999
            ],
            [
              119.4523831,
              25.9927611
            ]
          ]
        ]
      }
    },
    {
      "type": "Feature",
      "properties": {
        "id": "osm-435579291",
        "name": "地图建筑 435579291",
        "osmId": 435579291,
        "completion": "mass",
        "estimatedHeight": 6.6,
        "baseHeight": 2.465812025390976,
        "kind": "context"
      },
      "geometry": {
        "type": "Polygon",
        "coordinates": [
          [
            [
              119.4522473,
              25.992534900000003
            ],
            [
              119.45211740000003,
              25.992369100000005
            ],
            [
              119.45274009999999,
              25.991974900000002
            ],
            [
              119.45287,
              25.992140700000004
            ],
            [
              119.4522473,
              25.992534900000003
            ]
          ]
        ]
      }
    },
    {
      "type": "Feature",
      "properties": {
        "id": "osm-436810189",
        "name": "地图建筑 436810189",
        "osmId": 436810189,
        "completion": "mass",
        "estimatedHeight": 6.6,
        "baseHeight": 7.846537634070646,
        "kind": "context"
      },
      "geometry": {
        "type": "Polygon",
        "coordinates": [
          [
            [
              119.45366629999998,
              25.991023699999992
            ],
            [
              119.4534459,
              25.990723499999998
            ],
            [
              119.45358519999999,
              25.9906409
            ],
            [
              119.4538056,
              25.9909411
            ],
            [
              119.45366629999998,
              25.991023699999992
            ]
          ]
        ]
      }
    },
    {
      "type": "Feature",
      "properties": {
        "id": "osm-436810190",
        "name": "地图建筑 436810190",
        "osmId": 436810190,
        "completion": "mass",
        "estimatedHeight": 6.6,
        "baseHeight": 9.83100178731975,
        "kind": "context"
      },
      "geometry": {
        "type": "Polygon",
        "coordinates": [
          [
            [
              119.4538465,
              25.991298499999996
            ],
            [
              119.453707,
              25.99110360000001
            ],
            [
              119.45385900000001,
              25.9910157
            ],
            [
              119.45399850000003,
              25.991210499999998
            ],
            [
              119.4538465,
              25.991298499999996
            ]
          ]
        ]
      }
    },
    {
      "type": "Feature",
      "properties": {
        "id": "osm-437225937",
        "name": "马尾区文化馆",
        "osmId": 437225937,
        "completion": "mass",
        "estimatedHeight": 6.6,
        "baseHeight": 4.417783051397052,
        "kind": "context"
      },
      "geometry": {
        "type": "Polygon",
        "coordinates": [
          [
            [
              119.45499540000002,
              25.98775759999999
            ],
            [
              119.45472220000003,
              25.987435400000006
            ],
            [
              119.45511320000003,
              25.987167600000006
            ],
            [
              119.45538629999999,
              25.987489900000003
            ],
            [
              119.45499540000002,
              25.98775759999999
            ]
          ]
        ]
      }
    },
    {
      "type": "Feature",
      "properties": {
        "id": "osm-1098459396",
        "name": "马尾区福新楼",
        "osmId": 1098459396,
        "completion": "mass",
        "estimatedHeight": 19.799999999999997,
        "baseHeight": 1.5401822222476085,
        "kind": "context"
      },
      "geometry": {
        "type": "Polygon",
        "coordinates": [
          [
            [
              119.4416242,
              25.994396600000005
            ],
            [
              119.44167360000002,
              25.9944121
            ],
            [
              119.44170400000002,
              25.994398500000003
            ],
            [
              119.44172559999998,
              25.994421699999993
            ],
            [
              119.4423807,
              25.994151699999996
            ],
            [
              119.4422919,
              25.994013100000004
            ],
            [
              119.441584,
              25.99433309999999
            ],
            [
              119.4416242,
              25.994396600000005
            ]
          ]
        ]
      }
    },
    {
      "type": "Feature",
      "properties": {
        "id": "osm-1098459398",
        "name": "马尾基督教堂",
        "osmId": 1098459398,
        "completion": "mass",
        "estimatedHeight": 6.6,
        "baseHeight": 1.9725110238216654,
        "kind": "context"
      },
      "geometry": {
        "type": "Polygon",
        "coordinates": [
          [
            [
              119.44050580000003,
              25.994951999999998
            ],
            [
              119.44083480000002,
              25.994815800000005
            ],
            [
              119.44077510000004,
              25.99469929999999
            ],
            [
              119.44044620000003,
              25.9948355
            ],
            [
              119.44050580000003,
              25.994951999999998
            ]
          ]
        ]
      }
    },
    {
      "type": "Feature",
      "properties": {
        "id": "osm-1232799917",
        "name": "船政社区居民委员会",
        "osmId": 1232799917,
        "completion": "mass",
        "estimatedHeight": 6.6,
        "baseHeight": 6.040144414494531,
        "kind": "context"
      },
      "geometry": {
        "type": "Polygon",
        "coordinates": [
          [
            [
              119.44516340000003,
              25.992698299999997
            ],
            [
              119.4451022,
              25.9928735
            ],
            [
              119.4454274,
              25.993037800000003
            ],
            [
              119.44548090000002,
              25.992993200000004
            ],
            [
              119.4455147,
              25.99292410000001
            ],
            [
              119.4455798,
              25.9929467
            ],
            [
              119.4456206,
              25.9928457
            ],
            [
              119.4454485,
              25.992790400000008
            ],
            [
              119.44516340000003,
              25.992698299999997
            ]
          ]
        ]
      }
    },
    {
      "type": "Feature",
      "properties": {
        "id": "osm-1232799918",
        "name": "地图建筑 1232799918",
        "osmId": 1232799918,
        "completion": "mass",
        "estimatedHeight": 6.6,
        "baseHeight": 15.969323779820897,
        "kind": "context"
      },
      "geometry": {
        "type": "Polygon",
        "coordinates": [
          [
            [
              119.445716,
              25.992358199999998
            ],
            [
              119.44582219999998,
              25.992394399999995
            ],
            [
              119.44585429999998,
              25.992318399999995
            ],
            [
              119.44574810000003,
              25.992282199999995
            ],
            [
              119.445716,
              25.992358199999998
            ]
          ]
        ]
      }
    },
    {
      "type": "Feature",
      "properties": {
        "id": "osm-1326385632",
        "name": "福州经济技术开发区图书馆(马尾区图书馆)",
        "osmId": 1326385632,
        "completion": "mass",
        "estimatedHeight": 6.6,
        "baseHeight": 0.8282336292030124,
        "kind": "context"
      },
      "geometry": {
        "type": "Polygon",
        "coordinates": [
          [
            [
              119.45509139999999,
              25.986264100000003
            ],
            [
              119.4558937,
              25.9869073
            ],
            [
              119.45615,
              25.986648899999995
            ],
            [
              119.45534780000003,
              25.9860057
            ],
            [
              119.45509139999999,
              25.986264100000003
            ]
          ]
        ]
      }
    },
    {
      "type": "Feature",
      "properties": {
        "id": "osm-1412425918",
        "name": "地图建筑 1412425918",
        "osmId": 1412425918,
        "completion": "mass",
        "estimatedHeight": 3.3,
        "baseHeight": 0,
        "kind": "context"
      },
      "geometry": {
        "type": "Polygon",
        "coordinates": [
          [
            [
              119.44357070000001,
              25.990088099999994
            ],
            [
              119.4436418,
              25.990110099999992
            ],
            [
              119.4437281,
              25.989884299999996
            ],
            [
              119.443657,
              25.989862299999995
            ],
            [
              119.44357070000001,
              25.990088099999994
            ]
          ]
        ]
      }
    },
    {
      "type": "Feature",
      "properties": {
        "id": "post",
        "name": "船政邮局",
        "osmId": 1470977337,
        "completion": "mass",
        "estimatedHeight": 7.2,
        "baseHeight": 7.920934647454946,
        "kind": "context"
      },
      "geometry": {
        "type": "Polygon",
        "coordinates": [
          [
            [
              119.444866,
              25.9856794
            ],
            [
              119.4446854,
              25.985531399999996
            ],
            [
              119.44475830000003,
              25.985459499999994
            ],
            [
              119.44493889999998,
              25.985607399999992
            ],
            [
              119.444866,
              25.9856794
            ]
          ]
        ]
      }
    },
    {
      "type": "Feature",
      "properties": {
        "id": "cutting",
        "name": "原切割车间 · 现商业使用",
        "osmId": 1470977343,
        "completion": "mass",
        "estimatedHeight": 6,
        "baseHeight": 7.754266294405875,
        "kind": "industrial"
      },
      "geometry": {
        "type": "Polygon",
        "coordinates": [
          [
            [
              119.44344890000002,
              25.993533000000003
            ],
            [
              119.44365169999999,
              25.9933012
            ],
            [
              119.44403420000002,
              25.993571600000006
            ],
            [
              119.4438314,
              25.9938034
            ],
            [
              119.44344890000002,
              25.993533000000003
            ]
          ]
        ]
      }
    },
    {
      "type": "Feature",
      "properties": {
        "id": "osm-1470977346",
        "name": "地图建筑 1470977346",
        "osmId": 1470977346,
        "completion": "mass",
        "estimatedHeight": 6.6,
        "baseHeight": 0,
        "kind": "context"
      },
      "geometry": {
        "type": "Polygon",
        "coordinates": [
          [
            [
              119.44256050000001,
              25.990497500000007
            ],
            [
              119.44265629999998,
              25.9902459
            ],
            [
              119.44293590000001,
              25.990331999999995
            ],
            [
              119.44284010000003,
              25.9905835
            ],
            [
              119.44256050000001,
              25.990497500000007
            ]
          ]
        ]
      }
    },
    {
      "type": "Feature",
      "properties": {
        "id": "oldMuseum",
        "name": "船政文化博物馆旧馆 · 已停用",
        "osmId": 1470977347,
        "completion": "mass",
        "estimatedHeight": 16,
        "baseHeight": 9.099697882835216,
        "kind": "context"
      },
      "geometry": {
        "type": "Polygon",
        "coordinates": [
          [
            [
              119.4462024,
              25.9868457
            ],
            [
              119.4462799,
              25.986765699999996
            ],
            [
              119.44629570000001,
              25.9867705
            ],
            [
              119.44635379999998,
              25.986708799999995
            ],
            [
              119.4463318,
              25.986693699999996
            ],
            [
              119.44637059999998,
              25.9866542
            ],
            [
              119.4462491,
              25.986635200000006
            ],
            [
              119.4462443,
              25.9866103
            ],
            [
              119.44622980000001,
              25.9865819
            ],
            [
              119.4462099,
              25.9865537
            ],
            [
              119.44617970000002,
              25.986533600000005
            ],
            [
              119.4461307,
              25.986523199999997
            ],
            [
              119.4460863,
              25.986514
            ],
            [
              119.4460598,
              25.986423899999995
            ],
            [
              119.4460158,
              25.986459499999995
            ],
            [
              119.44597530000003,
              25.986429399999995
            ],
            [
              119.44594760000001,
              25.9864609
            ],
            [
              119.44598700000003,
              25.9864862
            ],
            [
              119.44596039999999,
              25.986517800000005
            ],
            [
              119.44605880000002,
              25.9865807
            ],
            [
              119.4460158,
              25.986774300000004
            ],
            [
              119.44614799999998,
              25.9868486
            ],
            [
              119.4461732,
              25.986824
            ],
            [
              119.4462024,
              25.9868457
            ]
          ]
        ]
      }
    },
    {
      "type": "Feature",
      "properties": {
        "id": "memorialPavilion",
        "name": "追思亭",
        "osmId": 1470977348,
        "completion": "mass",
        "estimatedHeight": 5,
        "baseHeight": 8.624711617203095,
        "kind": "pavilion"
      },
      "geometry": {
        "type": "Polygon",
        "coordinates": [
          [
            [
              119.44679050000002,
              25.987460099999996
            ],
            [
              119.4468432,
              25.987421999999988
            ],
            [
              119.44691750000004,
              25.987368400000005
            ],
            [
              119.4470278,
              25.9874918
            ],
            [
              119.44695539999998,
              25.987544100000004
            ],
            [
              119.44690079999998,
              25.9875835
            ],
            [
              119.44679050000002,
              25.987460099999996
            ]
          ]
        ]
      }
    },
    {
      "type": "Feature",
      "properties": {
        "id": "osm-1470977353",
        "name": "地图建筑 1470977353",
        "osmId": 1470977353,
        "completion": "mass",
        "estimatedHeight": 6.6,
        "baseHeight": 33.75869472272751,
        "kind": "context"
      },
      "geometry": {
        "type": "Polygon",
        "coordinates": [
          [
            [
              119.44546809999999,
              25.9871783
            ],
            [
              119.4455,
              25.9871203
            ],
            [
              119.44544580000002,
              25.9870963
            ],
            [
              119.44549179999999,
              25.9870128
            ],
            [
              119.44571710000001,
              25.987113099999995
            ],
            [
              119.44567290000002,
              25.9871933
            ],
            [
              119.44562199999999,
              25.987170699999997
            ],
            [
              119.4455883,
              25.987231800000004
            ],
            [
              119.44546809999999,
              25.9871783
            ]
          ]
        ]
      }
    },
    {
      "type": "Feature",
      "properties": {
        "id": "plumPavilion",
        "name": "梅园阁",
        "osmId": 1470977354,
        "completion": "mass",
        "estimatedHeight": 5,
        "baseHeight": 27.249576002171843,
        "kind": "pavilion"
      },
      "geometry": {
        "type": "Polygon",
        "coordinates": [
          [
            [
              119.44630550000001,
              25.987518799999997
            ],
            [
              119.4463722,
              25.987446800000008
            ],
            [
              119.44647570000001,
              25.987524199999996
            ],
            [
              119.446409,
              25.987596200000002
            ],
            [
              119.44630550000001,
              25.987518799999997
            ]
          ]
        ]
      }
    },
    {
      "type": "Feature",
      "properties": {
        "id": "consulate",
        "name": "英国副领事署",
        "osmId": 1470977355,
        "completion": "mass",
        "estimatedHeight": 4.2,
        "baseHeight": 32.9068250709151,
        "kind": "colonial"
      },
      "geometry": {
        "type": "Polygon",
        "coordinates": [
          [
            [
              119.44544950000004,
              25.9874181
            ],
            [
              119.44548210000002,
              25.987290099999996
            ],
            [
              119.44580790000002,
              25.987357300000003
            ],
            [
              119.44577470000002,
              25.9874876
            ],
            [
              119.4456722,
              25.9874664
            ],
            [
              119.4456784,
              25.987442299999998
            ],
            [
              119.44554690000002,
              25.987415099999996
            ],
            [
              119.44554129999999,
              25.987437000000003
            ],
            [
              119.44544950000004,
              25.9874181
            ]
          ]
        ]
      }
    },
    {
      "type": "Feature",
      "properties": {
        "id": "prison",
        "name": "梅园监狱",
        "osmId": 1470977356,
        "completion": "mass",
        "estimatedHeight": 4,
        "baseHeight": 36.29296252904866,
        "kind": "colonial"
      },
      "geometry": {
        "type": "Polygon",
        "coordinates": [
          [
            [
              119.44517790000002,
              25.987202100000005
            ],
            [
              119.44525749999998,
              25.987143299999993
            ],
            [
              119.44539120000002,
              25.987289599999997
            ],
            [
              119.4453116,
              25.987348400000005
            ],
            [
              119.44517790000002,
              25.987202100000005
            ]
          ]
        ]
      }
    },
    {
      "type": "Feature",
      "properties": {
        "id": "auditorium",
        "name": "马尾造船厂礼堂",
        "osmId": 1471591718,
        "completion": "mass",
        "estimatedHeight": 6,
        "baseHeight": 4.381530170196326,
        "kind": "industrial"
      },
      "geometry": {
        "type": "Polygon",
        "coordinates": [
          [
            [
              119.4436515,
              25.9921781
            ],
            [
              119.4438171,
              25.991799800000006
            ],
            [
              119.44385059999999,
              25.9918116
            ],
            [
              119.44386290000001,
              25.991783600000005
            ],
            [
              119.44398569999998,
              25.991827000000004
            ],
            [
              119.4439729,
              25.991856200000004
            ],
            [
              119.4440047,
              25.991867499999998
            ],
            [
              119.44383960000003,
              25.992244600000003
            ],
            [
              119.4436515,
              25.9921781
            ]
          ]
        ]
      }
    },
    {
      "type": "Feature",
      "properties": {
        "id": "osm-1471591722",
        "name": "地图建筑 1471591722",
        "osmId": 1471591722,
        "completion": "mass",
        "estimatedHeight": 6.6,
        "baseHeight": 16.110168605439366,
        "kind": "context"
      },
      "geometry": {
        "type": "Polygon",
        "coordinates": [
          [
            [
              119.44395570000002,
              25.986251700000004
            ],
            [
              119.44410560000001,
              25.9861541
            ],
            [
              119.44443689999999,
              25.98622230000001
            ],
            [
              119.44441500000002,
              25.986307999999998
            ],
            [
              119.44411480000001,
              25.9862462
            ],
            [
              119.4440075,
              25.986316
            ],
            [
              119.44395570000002,
              25.986251700000004
            ]
          ]
        ]
      }
    },
    {
      "type": "Feature",
      "properties": {
        "id": "osm-1482480747",
        "name": "地图建筑 1482480747",
        "osmId": 1482480747,
        "completion": "mass",
        "estimatedHeight": 6.6,
        "baseHeight": 4.703857396433319,
        "kind": "context"
      },
      "geometry": {
        "type": "Polygon",
        "coordinates": [
          [
            [
              119.4449476,
              25.985336700000005
            ],
            [
              119.44479699999998,
              25.985152200000005
            ],
            [
              119.44492000000001,
              25.985071099999995
            ],
            [
              119.44507050000003,
              25.985255599999995
            ],
            [
              119.4449476,
              25.985336700000005
            ]
          ]
        ]
      }
    },
    {
      "type": "Feature",
      "properties": {
        "id": "osm-1482480748",
        "name": "地图建筑 1482480748",
        "osmId": 1482480748,
        "completion": "mass",
        "estimatedHeight": 6.6,
        "baseHeight": 3.9241572112966523,
        "kind": "context"
      },
      "geometry": {
        "type": "Polygon",
        "coordinates": [
          [
            [
              119.44478430000001,
              25.9850725
            ],
            [
              119.44490439999998,
              25.984994299999993
            ],
            [
              119.44475729999999,
              25.984811499999996
            ],
            [
              119.44463709999998,
              25.984889699999997
            ],
            [
              119.44478430000001,
              25.9850725
            ]
          ]
        ]
      }
    },
    {
      "type": "Feature",
      "properties": {
        "id": "osm-1482480749",
        "name": "地图建筑 1482480749",
        "osmId": 1482480749,
        "completion": "mass",
        "estimatedHeight": 6.6,
        "baseHeight": 1.9419862120810514,
        "kind": "context"
      },
      "geometry": {
        "type": "Polygon",
        "coordinates": [
          [
            [
              119.4443525,
              25.985076700000004
            ],
            [
              119.44455780000001,
              25.9849408
            ],
            [
              119.44444640000002,
              25.984804799999996
            ],
            [
              119.4442411,
              25.984940699999992
            ],
            [
              119.4443525,
              25.985076700000004
            ]
          ]
        ]
      }
    },
    {
      "type": "Feature",
      "properties": {
        "id": "hospitalA",
        "name": "圣教医院 A 座",
        "osmId": 1482480750,
        "completion": "mass",
        "estimatedHeight": 7.8,
        "baseHeight": 11.287697235025714,
        "kind": "colonial"
      },
      "geometry": {
        "type": "Polygon",
        "coordinates": [
          [
            [
              119.4446875,
              25.9860516
            ],
            [
              119.44487440000003,
              25.985978100000004
            ],
            [
              119.444853,
              25.9859341
            ],
            [
              119.4448684,
              25.9858969
            ],
            [
              119.4448292,
              25.985831600000004
            ],
            [
              119.44480019999999,
              25.985818099999996
            ],
            [
              119.44477800000001,
              25.985772499999996
            ],
            [
              119.44462979999999,
              25.985833099999997
            ],
            [
              119.44461869999999,
              25.985842000000005
            ],
            [
              119.44459910000003,
              25.9858612
            ],
            [
              119.4446191,
              25.985902399999997
            ],
            [
              119.4446995,
              25.985870799999994
            ],
            [
              119.4447503,
              25.9859753
            ],
            [
              119.44466640000002,
              25.986008300000005
            ],
            [
              119.4446875,
              25.9860516
            ]
          ]
        ]
      }
    },
    {
      "type": "Feature",
      "properties": {
        "id": "hospitalB",
        "name": "圣教医院 B 座",
        "osmId": 1482480751,
        "completion": "mass",
        "estimatedHeight": 7.8,
        "baseHeight": 11.287697235025714,
        "kind": "colonial"
      },
      "geometry": {
        "type": "Polygon",
        "coordinates": [
          [
            [
              119.44458140000002,
              25.985855899999997
            ],
            [
              119.44461869999999,
              25.985842000000005
            ],
            [
              119.44461089999999,
              25.985824299999997
            ],
            [
              119.44472570000002,
              25.985776399999992
            ],
            [
              119.4446971,
              25.9857
            ],
            [
              119.44467030000001,
              25.9856656
            ],
            [
              119.44463549999999,
              25.985651399999995
            ],
            [
              119.44456460000002,
              25.985626799999995
            ],
            [
              119.44454770000003,
              25.9856702
            ],
            [
              119.44460420000003,
              25.9856876
            ],
            [
              119.44458500000002,
              25.98577280000001
            ],
            [
              119.4445444,
              25.9857902
            ],
            [
              119.44458140000002,
              25.985855899999997
            ]
          ]
        ]
      }
    },
    {
      "type": "Feature",
      "properties": {
        "id": "osm-1482480752",
        "name": "地图建筑 1482480752",
        "osmId": 1482480752,
        "completion": "mass",
        "estimatedHeight": 6.6,
        "baseHeight": 9.340916162504815,
        "kind": "context"
      },
      "geometry": {
        "type": "Polygon",
        "coordinates": [
          [
            [
              119.4434125,
              25.986321299999997
            ],
            [
              119.4435979,
              25.9860983
            ],
            [
              119.44368620000002,
              25.9861577
            ],
            [
              119.44350080000002,
              25.986380600000004
            ],
            [
              119.4434125,
              25.986321299999997
            ]
          ]
        ]
      }
    },
    {
      "type": "Feature",
      "properties": {
        "id": "osm-1482480753",
        "name": "地图建筑 1482480753",
        "osmId": 1482480753,
        "completion": "mass",
        "estimatedHeight": 6.6,
        "baseHeight": 1.5723524484452707,
        "kind": "context"
      },
      "geometry": {
        "type": "Polygon",
        "coordinates": [
          [
            [
              119.4436703,
              25.985581699999994
            ],
            [
              119.44381920000001,
              25.985400100000003
            ],
            [
              119.44390640000002,
              25.985457999999998
            ],
            [
              119.4437575,
              25.985639500000005
            ],
            [
              119.4436703,
              25.985581699999994
            ]
          ]
        ]
      }
    },
    {
      "type": "Feature",
      "properties": {
        "id": "osm-1482480754",
        "name": "地图建筑 1482480754",
        "osmId": 1482480754,
        "completion": "mass",
        "estimatedHeight": 6.6,
        "baseHeight": 8.636027462710363,
        "kind": "context"
      },
      "geometry": {
        "type": "Polygon",
        "coordinates": [
          [
            [
              119.44378909999999,
              25.985855000000004
            ],
            [
              119.44394699999998,
              25.985673200000004
            ],
            [
              119.44404950000002,
              25.985745199999997
            ],
            [
              119.4438915,
              25.9859269
            ],
            [
              119.44378909999999,
              25.985855000000004
            ]
          ]
        ]
      }
    },
    {
      "type": "Feature",
      "properties": {
        "id": "osm-1482480755",
        "name": "地图建筑 1482480755",
        "osmId": 1482480755,
        "completion": "mass",
        "estimatedHeight": 6.6,
        "baseHeight": 2.5805355681661037,
        "kind": "context"
      },
      "geometry": {
        "type": "Polygon",
        "coordinates": [
          [
            [
              119.44398239999998,
              25.985567
            ],
            [
              119.44413530000003,
              25.985381800000003
            ],
            [
              119.44422980000003,
              25.985444900000005
            ],
            [
              119.44407689999998,
              25.98563
            ],
            [
              119.44398239999998,
              25.985567
            ]
          ]
        ]
      }
    },
    {
      "type": "Feature",
      "properties": {
        "id": "osm-1483824828",
        "name": "罗星街道办事处",
        "osmId": 1483824828,
        "completion": "mass",
        "estimatedHeight": 6.6,
        "baseHeight": 13.055753621208844,
        "kind": "context"
      },
      "geometry": {
        "type": "Polygon",
        "coordinates": [
          [
            [
              119.45420350000002,
              25.9870942
            ],
            [
              119.45466200000001,
              25.9867983
            ],
            [
              119.45424979999999,
              25.9862821
            ],
            [
              119.4537912,
              25.9865781
            ],
            [
              119.45420350000002,
              25.9870942
            ]
          ]
        ]
      }
    },
    {
      "type": "Feature",
      "properties": {
        "id": "osm-1483855592",
        "name": "地图建筑 1483855592",
        "osmId": 1483855592,
        "completion": "mass",
        "estimatedHeight": 6.6,
        "baseHeight": 27.52070649224062,
        "kind": "context"
      },
      "geometry": {
        "type": "Polygon",
        "coordinates": [
          [
            [
              119.44891359999998,
              25.992962899999995
            ],
            [
              119.4491264,
              25.992765499999997
            ],
            [
              119.44904370000005,
              25.9926935
            ],
            [
              119.44883090000003,
              25.992890900000003
            ],
            [
              119.44891359999998,
              25.992962899999995
            ]
          ]
        ]
      }
    },
    {
      "type": "Feature",
      "properties": {
        "id": "dean",
        "name": "圣教医院院长公寓",
        "osmId": 1486253390,
        "completion": "mass",
        "estimatedHeight": 7.2,
        "baseHeight": 22.48228251808251,
        "kind": "colonial"
      },
      "geometry": {
        "type": "Polygon",
        "coordinates": [
          [
            [
              119.4455855,
              25.986844900000005
            ],
            [
              119.44572219999999,
              25.986922600000003
            ],
            [
              119.44583229999999,
              25.986766099999997
            ],
            [
              119.4456957,
              25.986688400000002
            ],
            [
              119.4455855,
              25.986844900000005
            ]
          ]
        ]
      }
    },
    {
      "type": "Feature",
      "properties": {
        "id": "yamen",
        "name": "总理船政衙门 · 现代复建",
        "osmId": 20140073,
        "completion": "mass",
        "estimatedHeight": 5,
        "baseHeight": 1.293002056184263,
        "kind": "yamen"
      },
      "geometry": {
        "type": "Polygon",
        "coordinates": [
          [
            [
              119.44367869999999,
              25.9931931
            ],
            [
              119.4442597,
              25.993611500000007
            ],
            [
              119.4445372,
              25.9933003
            ],
            [
              119.44441510000003,
              25.993212300000003
            ],
            [
              119.44445590000001,
              25.993166600000006
            ],
            [
              119.4439969,
              25.992836099999995
            ],
            [
              119.44367869999999,
              25.9931931
            ]
          ],
          [
            [
              119.444005,
              25.9932312
            ],
            [
              119.4441143,
              25.9931051
            ],
            [
              119.4439777,
              25.993009399999995
            ],
            [
              119.44386840000001,
              25.993135600000002
            ],
            [
              119.444005,
              25.9932312
            ]
          ]
        ]
      }
    },
    {
      "type": "Feature",
      "properties": {
        "id": "frontSchool",
        "name": "船政前学堂 · 现代复建",
        "osmId": 20140074,
        "completion": "mass",
        "estimatedHeight": 8.2,
        "baseHeight": 8.657076955022076,
        "kind": "school"
      },
      "geometry": {
        "type": "Polygon",
        "coordinates": [
          [
            [
              119.4446815,
              25.9922567
            ],
            [
              119.4448139,
              25.992299199999994
            ],
            [
              119.44485390000001,
              25.9921987
            ],
            [
              119.44483679999999,
              25.992193199999992
            ],
            [
              119.44488400000002,
              25.9920747
            ],
            [
              119.4449149,
              25.99208469999999
            ],
            [
              119.44495659999998,
              25.99198
            ],
            [
              119.44483119999998,
              25.991939700000003
            ],
            [
              119.4448565,
              25.9918762
            ],
            [
              119.44505949999999,
              25.9919415
            ],
            [
              119.4449962,
              25.992100299999997
            ],
            [
              119.44502130000002,
              25.992108400000006
            ],
            [
              119.44496829999999,
              25.9922414
            ],
            [
              119.4449434,
              25.9922334
            ],
            [
              119.4448755,
              25.992403899999996
            ],
            [
              119.44465150000003,
              25.9923319
            ],
            [
              119.4446815,
              25.9922567
            ]
          ]
        ]
      }
    },
    {
      "type": "Feature",
      "properties": {
        "id": "frontSchool-1",
        "name": "船政前学堂 · 现代复建",
        "osmId": 20140074,
        "completion": "mass",
        "estimatedHeight": 8.2,
        "baseHeight": 8.657076955022076,
        "kind": "school"
      },
      "geometry": {
        "type": "Polygon",
        "coordinates": [
          [
            [
              119.4444941,
              25.9921
            ],
            [
              119.44469150000002,
              25.992168899999996
            ],
            [
              119.4447682,
              25.991991400000007
            ],
            [
              119.44457079999998,
              25.991922399999996
            ],
            [
              119.4444941,
              25.9921
            ]
          ]
        ]
      }
    },
    {
      "type": "Feature",
      "properties": {
        "id": "rearSchool",
        "name": "船政后学堂 · 现代复建",
        "osmId": 20140075,
        "completion": "mass",
        "estimatedHeight": 8.2,
        "baseHeight": 1.9300965029617814,
        "kind": "school"
      },
      "geometry": {
        "type": "Polygon",
        "coordinates": [
          [
            [
              119.4453066,
              25.990564800000005
            ],
            [
              119.44549650000005,
              25.990649
            ],
            [
              119.4455903,
              25.990478100000008
            ],
            [
              119.44540029999999,
              25.990393899999997
            ],
            [
              119.4453066,
              25.990564800000005
            ]
          ]
        ]
      }
    },
    {
      "type": "Feature",
      "properties": {
        "id": "rearSchool-1",
        "name": "船政后学堂 · 现代复建",
        "osmId": 20140075,
        "completion": "mass",
        "estimatedHeight": 8.2,
        "baseHeight": 2.088326017050157,
        "kind": "school"
      },
      "geometry": {
        "type": "Polygon",
        "coordinates": [
          [
            [
              119.44551140000003,
              25.99073080000001
            ],
            [
              119.4456312,
              25.9907803
            ],
            [
              119.445674,
              25.99069649999999
            ],
            [
              119.44565649999998,
              25.990689299999996
            ],
            [
              119.44572400000001,
              25.990557199999998
            ],
            [
              119.44574859999999,
              25.990567299999995
            ],
            [
              119.4457922,
              25.990481900000002
            ],
            [
              119.4456725,
              25.990432500000004
            ],
            [
              119.4457073,
              25.990364300000003
            ],
            [
              119.44590579999999,
              25.990446200000004
            ],
            [
              119.4458247,
              25.990604900000005
            ],
            [
              119.4458448,
              25.990613200000002
            ],
            [
              119.4457836,
              25.990732899999994
            ],
            [
              119.44575970000001,
              25.990723
            ],
            [
              119.4456749,
              25.9908891
            ],
            [
              119.44547310000002,
              25.9908057
            ],
            [
              119.44551140000003,
              25.99073080000001
            ]
          ]
        ]
      }
    },
    {
      "type": "Feature",
      "properties": {
        "id": "zhaozhong",
        "name": "昭忠祠 · 马江海战纪念馆",
        "osmId": 20140076,
        "completion": "mass",
        "estimatedHeight": 5.5,
        "baseHeight": 5.689688843789522,
        "kind": "memorial"
      },
      "geometry": {
        "type": "Polygon",
        "coordinates": [
          [
            [
              119.44705270000003,
              25.987692300000003
            ],
            [
              119.4473348,
              25.987482100000005
            ],
            [
              119.447494,
              25.987654800000005
            ],
            [
              119.4472119,
              25.987864899999995
            ],
            [
              119.44705270000003,
              25.987692300000003
            ]
          ],
          [
            [
              119.44719929999998,
              25.98767779999999
            ],
            [
              119.44726310000001,
              25.9876294
            ],
            [
              119.4473152,
              25.987685
            ],
            [
              119.44725140000001,
              25.987733299999995
            ],
            [
              119.44719929999998,
              25.98767779999999
            ]
          ],
          [
            [
              119.44738699999999,
              25.9876697
            ],
            [
              119.4474364,
              25.987633699999993
            ],
            [
              119.44734230000002,
              25.987529199999997
            ],
            [
              119.44729289999998,
              25.9875652
            ],
            [
              119.44738699999999,
              25.9876697
            ]
          ]
        ]
      }
    },
    {
      "type": "Feature",
      "properties": {
        "id": "tianhou",
        "name": "船政天后宫 · 现代复建",
        "osmId": 1470977357,
        "completion": "mass",
        "estimatedHeight": 7,
        "baseHeight": 27.52361264163219,
        "kind": "temple"
      },
      "geometry": {
        "type": "Polygon",
        "coordinates": [
          [
            [
              119.4440079,
              25.987365899999997
            ],
            [
              119.4440753,
              25.9873351
            ],
            [
              119.44434400000003,
              25.9875963
            ],
            [
              119.444678,
              25.9873655
            ],
            [
              119.44449500000003,
              25.987182799999996
            ],
            [
              119.44472280000002,
              25.986995200000003
            ],
            [
              119.44433129999999,
              25.986848099999992
            ],
            [
              119.4439733,
              25.98701240000001
            ],
            [
              119.4439058,
              25.9869311
            ],
            [
              119.4437662,
              25.9870149
            ],
            [
              119.4440079,
              25.987365899999997
            ]
          ]
        ]
      }
    },
    {
      "type": "Feature",
      "properties": {
        "id": "luoxing",
        "name": "罗星塔",
        "osmId": 3512322824,
        "completion": "photo",
        "estimatedHeight": 31.5,
        "baseHeight": 22.59170302671008,
        "kind": "pagoda"
      },
      "geometry": {
        "type": "Polygon",
        "coordinates": [
          [
            [
              119.45251304336917,
              25.98329049722359
            ],
            [
              119.45250046337391,
              25.983263053130624
            ],
            [
              119.45247009693597,
              25.983251687039594
            ],
            [
              119.45243973229289,
              25.98326305704805
            ],
            [
              119.45242715663082,
              25.983290502763673
            ],
            [
              119.452439736612,
              25.983317946862908
            ],
            [
              119.45247010306403,
              25.9833293129602
            ],
            [
              119.45250046772118,
              25.98331794294548
            ],
            [
              119.45251304336917,
              25.98329049722359
            ]
          ]
        ]
      }
    },
    {
      "type": "Feature",
      "properties": {
        "osmRelation": 569810,
        "name": "闽江水域"
      },
      "geometry": {
        "type": "Polygon",
        "coordinates": [
          [
            [
              119.437999384053,
              25.995963169399435
            ],
            [
              119.43816759999999,
              25.995800499999998
            ],
            [
              119.4384489,
              25.995585600000005
            ],
            [
              119.43848860000001,
              25.9956246
            ],
            [
              119.43862009999998,
              25.9955222
            ],
            [
              119.43856789999998,
              25.995460400000006
            ],
            [
              119.4387995,
              25.9951953
            ],
            [
              119.43886020000002,
              25.995237400000008
            ],
            [
              119.43912220000001,
              25.9949303
            ],
            [
              119.439192,
              25.994978799999995
            ],
            [
              119.43933380000001,
              25.99483819999999
            ],
            [
              119.4393246,
              25.994753299999996
            ],
            [
              119.43933169999998,
              25.994675499999996
            ],
            [
              119.43937279999999,
              25.9946144
            ],
            [
              119.4395652,
              25.994418000000003
            ],
            [
              119.44013669999998,
              25.9937228
            ],
            [
              119.44059849999998,
              25.993161900000004
            ],
            [
              119.4405209,
              25.9931023
            ],
            [
              119.44054250000002,
              25.993080799999994
            ],
            [
              119.44045610000002,
              25.993010000000005
            ],
            [
              119.44057820000002,
              25.99283120000001
            ],
            [
              119.44071130000003,
              25.9926156
            ],
            [
              119.4417678,
              25.989547299999995
            ],
            [
              119.44210749999999,
              25.989641800000012
            ],
            [
              119.4421782,
              25.9894397
            ],
            [
              119.44205620000004,
              25.9894044
            ],
            [
              119.44216390000001,
              25.9890855
            ],
            [
              119.4419564,
              25.989023099999997
            ],
            [
              119.4420045,
              25.988887899999998
            ],
            [
              119.44208520000002,
              25.988912099999997
            ],
            [
              119.44221850000001,
              25.9886204
            ],
            [
              119.44207230000005,
              25.988465000000005
            ],
            [
              119.44198479999999,
              25.9883254
            ],
            [
              119.4420149,
              25.988155800000005
            ],
            [
              119.4420882,
              25.9879664
            ],
            [
              119.44235200000001,
              25.9880489
            ],
            [
              119.4424463,
              25.987790299999993
            ],
            [
              119.44229530000001,
              25.987707299999997
            ],
            [
              119.4423998,
              25.987392600000003
            ],
            [
              119.44226070000002,
              25.987327399999995
            ],
            [
              119.44223460000002,
              25.9872593
            ],
            [
              119.44224519999999,
              25.987224
            ],
            [
              119.44232430000002,
              25.987128600000002
            ],
            [
              119.44248589999998,
              25.9869337
            ],
            [
              119.442569,
              25.9868335
            ],
            [
              119.44264189999998,
              25.986674399999995
            ],
            [
              119.44292590000002,
              25.986252200000003
            ],
            [
              119.44297840000002,
              25.986208199999993
            ],
            [
              119.4384213,
              25.985393299999995
            ],
            [
              119.43799984581844,
              25.985346267258546
            ],
            [
              119.437999384053,
              25.995963169399435
            ]
          ]
        ]
      }
    },
    {
      "type": "Feature",
      "properties": {
        "osmRelation": 2001109,
        "name": "闽江水域"
      },
      "geometry": {
        "type": "Polygon",
        "coordinates": [
          [
            [
              119.43800000000003,
              25.9818
            ],
            [
              119.43799984581844,
              25.985346267258546
            ],
            [
              119.4384213,
              25.985393299999995
            ],
            [
              119.44297840000002,
              25.986208199999993
            ],
            [
              119.44349670000001,
              25.985613199999996
            ],
            [
              119.44346969999998,
              25.985594
            ],
            [
              119.4436701,
              25.985374
            ],
            [
              119.4439544,
              25.98496520000001
            ],
            [
              119.4443713,
              25.984739100000002
            ],
            [
              119.444723,
              25.984686499999995
            ],
            [
              119.4450527,
              25.98454359999999
            ],
            [
              119.4451883,
              25.98437
            ],
            [
              119.44515429999998,
              25.984295900000006
            ],
            [
              119.44510670000003,
              25.984319199999998
            ],
            [
              119.44502640000002,
              25.9842071
            ],
            [
              119.44511550000001,
              25.98413959999999
            ],
            [
              119.45070980000001,
              25.982447999999994
            ],
            [
              119.4508224,
              25.982727099999998
            ],
            [
              119.4518609,
              25.982432
            ],
            [
              119.45201160000002,
              25.982428199999994
            ],
            [
              119.45302690000004,
              25.982533399999998
            ],
            [
              119.4536582,
              25.982887700000003
            ],
            [
              119.45416420000002,
              25.983210400000004
            ],
            [
              119.454492,
              25.983374999999995
            ],
            [
              119.45367640000002,
              25.984360699999996
            ],
            [
              119.45352880000004,
              25.984650600000005
            ],
            [
              119.4535122,
              25.984693899999993
            ],
            [
              119.4535001,
              25.984735199999996
            ],
            [
              119.45349279999999,
              25.984767400000003
            ],
            [
              119.4534902,
              25.98479830000001
            ],
            [
              119.4534975,
              25.9848254
            ],
            [
              119.4535115,
              25.984848899999996
            ],
            [
              119.45353569999999,
              25.9848641
            ],
            [
              119.453572,
              25.984869899999996
            ],
            [
              119.4536182,
              25.984860699999995
            ],
            [
              119.4536721,
              25.9848446
            ],
            [
              119.4537156,
              25.98481830000001
            ],
            [
              119.45376590000004,
              25.9847756
            ],
            [
              119.4539127,
              25.9845764
            ],
            [
              119.45469389999998,
              25.9834943
            ],
            [
              119.4547691,
              25.983534400000003
            ],
            [
              119.45478720000001,
              25.9835188
            ],
            [
              119.45480560000003,
              25.983505600000008
            ],
            [
              119.45482619999999,
              25.983494899999993
            ],
            [
              119.4548449,
              25.9834863
            ],
            [
              119.45487140000002,
              25.9834769
            ],
            [
              119.4548933,
              25.983472899999995
            ],
            [
              119.4549214,
              25.983472100000007
            ],
            [
              119.45495060000002,
              25.983476000000003
            ],
            [
              119.45497660000002,
              25.983482299999995
            ],
            [
              119.45500139999999,
              25.983493299999996
            ],
            [
              119.4550243,
              25.983506099999993
            ],
            [
              119.45504340000001,
              25.983520399999996
            ],
            [
              119.45505980000002,
              25.983538199999998
            ],
            [
              119.4550743,
              25.9835586
            ],
            [
              119.4550828,
              25.983575799999997
            ],
            [
              119.45508769999999,
              25.983589999999992
            ],
            [
              119.4550911,
              25.983606500000004
            ],
            [
              119.45509420000003,
              25.983638099999997
            ],
            [
              119.45526440000002,
              25.9837338
            ],
            [
              119.45569872212714,
              25.983978076028308
            ],
            [
              119.45569849064675,
              25.981799546049423
            ],
            [
              119.43800000000003,
              25.9818
            ]
          ]
        ]
      }
    }
  ]
}